IRIDIUM 921             
1 24873U 97034E   24324.41021945  .00104889  00000+0  11579-2 0  9992
2 24873  86.3747 210.2029 0006123  59.8391 300.3481 15.62705058499194
IRIDIUM 26              
1 24903U 97043A   24324.58870189  .00000676  00000+0  22249-3 0  9992
2 24903  86.4006 198.5660 0002304  81.4761 278.6697 14.36801063426644
IRIDIUM 22              
1 24907U 97043E   24324.48723854  .00000590  00000+0  19788-3 0  9990
2 24907  86.4010 201.9645 0002072  82.7630 277.3802 14.35652185426682
DUMMY MASS 1            
1 24925U 97048A   24324.57007402  .00000830  00000+0  90374-4 0  9997
2 24925  86.3374 232.1548 0007473 150.5079 209.6569 14.86624111473980
DUMMY MASS 2            
1 24926U 97048B   24324.49745839  .00000822  00000+0  90071-4 0  9997
2 24926  86.3372 233.7577 0007755 162.8053 197.3436 14.86379036473753
IRIDIUM 29              
1 24944U 97051A   24324.51116166  .00000732  00000+0  24478-3 0  9996
2 24944  86.3985 231.7521 0002063  85.7106 274.4327 14.36111823423179
IRIDIUM 33              
1 24946U 97051C   24324.47950640  .00000532  00000+0  18110-3 0  9990
2 24946  86.3902 231.0126 0009675  51.3867 308.8194 14.34651786422676
IRIDIUM 28              
1 24948U 97051E   24324.48178587  .00000719  00000+0  23595-3 0  9995
2 24948  86.3993 229.4000 0002631  77.7069 282.4423 14.37060171423725
